{
  "type": "FeatureCollection",
  "features": [
    {
      "type": "Feature",
      "properties": {
        "norad_id": 41581,
        "name": "INTELSAT 31 (IS-31)",
        "group": "intelsat",
        "lat": -0.014411505110499006,
        "lon": 140.67253429151629,
        "alt_km": 35785.41268221407,
        "timestamp": "2025-12-03T10:52:57.117933+00:00",
        "meta_object_name": "INTELSAT 31 (IS-31)",
        "meta_object_id": "2016-035A",
        "meta_epoch": "2025-12-02T09:32:38.891904",
        "meta_mean_motion": 1.00269687,
        "meta_eccentricity": 0.00019053,
        "meta_inclination": 0.0144,
        "meta_ra_of_asc_node": 272.373,
        "meta_arg_of_pericenter": 308.7593,
        "meta_mean_anomaly": 258.4788,
        "meta_ephemeris_type": 0,
        "meta_classification_type": "U",
        "meta_norad_cat_id": 41581,
        "meta_element_set_no": 999,
        "meta_rev_at_epoch": 3471,
        "meta_bstar": 0,
        "meta_mean_motion_dot": -1.3e-06,
        "meta_mean_motion_ddot": 0,
        "tle_line1": "1 41581U 16035A   25336.39767236 -.00000130  00000+0  00000+0 0  9999",
        "tle_line2": "2 41581   0.0144 272.3730 0001905 308.7593 258.4788  1.00269687 34710"
      },
      "geometry": {
        "type": "Point",
        "coordinates": [
          140.67253429151629,
          -0.014411505110499006
        ]
      }
    },
    {
      "type": "Feature",
      "properties": {
        "norad_id": 41747,
        "name": "INTELSAT 36 (IS-36)",
        "group": "intelsat",
        "lat": -0.017189026614543582,
        "lon": -55.74058486072539,
        "alt_km": 35780.92096826068,
        "timestamp": "2025-12-03T10:52:57.117945+00:00",
        "meta_object_name": "INTELSAT 36 (IS-36)",
        "meta_object_id": "2016-053A",
        "meta_epoch": "2025-12-03T00:23:05.476704",
        "meta_mean_motion": 1.00270226,
        "meta_eccentricity": 0.0001373,
        "meta_inclination": 0.0123,
        "meta_ra_of_asc_node": 348.519,
        "meta_arg_of_pericenter": 330.1213,
        "meta_mean_anomaly": 187.7546,
        "meta_ephemeris_type": 0,
        "meta_classification_type": "U",
        "meta_norad_cat_id": 41747,
        "meta_element_set_no": 999,
        "meta_rev_at_epoch": 3398,
        "meta_bstar": 0,
        "meta_mean_motion_dot": -5e-08,
        "meta_mean_motion_ddot": 0,
        "tle_line1": "1 41747U 16053A   25337.01603561 -.00000005  00000+0  00000+0 0  9994",
        "tle_line2": "2 41747   0.0123 348.5190 0001373 330.1213 187.7546  1.00270226 33989"
      },
      "geometry": {
        "type": "Point",
        "coordinates": [
          -55.74058486072539,
          -0.017189026614543582
        ]
      }
    },
    {
      "type": "Feature",
      "properties": {
        "norad_id": 41945,
        "name": "INTELSAT 32E (IS-32E)",
        "group": "intelsat",
        "lat": -0.004170179382803623,
        "lon": -167.41666915387734,
        "alt_km": 35787.22034978477,
        "timestamp": "2025-12-03T10:52:57.117956+00:00",
        "meta_object_name": "INTELSAT 32E (IS-32E)",
        "meta_object_id": "2017-007B",
        "meta_epoch": "2025-12-02T22:08:25.880928",
        "meta_mean_motion": 1.00269766,
        "meta_eccentricity": 1.38e-05,
        "meta_inclination": 0.0269,
        "meta_ra_of_asc_node": 63.4752,
        "meta_arg_of_pericenter": 281.8486,
        "meta_mean_anomaly": 15.6362,
        "meta_ephemeris_type": 0,
        "meta_classification_type": "U",
        "meta_norad_cat_id": 41945,
        "meta_element_set_no": 999,
        "meta_rev_at_epoch": 3225,
        "meta_bstar": 0,
        "meta_mean_motion_dot": -2.49e-06,
        "meta_mean_motion_ddot": 0,
        "tle_line1": "1 41945U 17007B   25336.92252177 -.00000249  00000+0  00000+0 0  9996",
        "tle_line2": "2 41945   0.0269  63.4752 0000138 281.8486  15.6362  1.00269766 32250"
      },
      "geometry": {
        "type": "Point",
        "coordinates": [
          -167.41666915387734,
          -0.004170179382803623
        ]
      }
    },
    {
      "type": "Feature",
      "properties": {
        "norad_id": 42818,
        "name": "INTELSAT 35E (IS-35E)",
        "group": "intelsat",
        "lat": -0.03864033249984022,
        "lon": -158.7439999661575,
        "alt_km": 35780.32580888426,
        "timestamp": "2025-12-03T10:52:57.117968+00:00",
        "meta_object_name": "INTELSAT 35E (IS-35E)",
        "meta_object_id": "2017-041A",
        "meta_epoch": "2025-12-03T03:19:05.464416",
        "meta_mean_motion": 1.00270944,
        "meta_eccentricity": 0.0002331,
        "meta_inclination": 0.0188,
        "meta_ra_of_asc_node": 322.3236,
        "meta_arg_of_pericenter": 291.3999,
        "meta_mean_anomaly": 193.8045,
        "meta_ephemeris_type": 0,
        "meta_classification_type": "U",
        "meta_norad_cat_id": 42818,
        "meta_element_set_no": 999,
        "meta_rev_at_epoch": 3085,
        "meta_bstar": 0,
        "meta_mean_motion_dot": -2.19e-06,
        "meta_mean_motion_ddot": 0,
        "tle_line1": "1 42818U 17041A   25337.13825769 -.00000219  00000+0  00000+0 0  9998",
        "tle_line2": "2 42818   0.0188 322.3236 0002331 291.3999 193.8045  1.00270944 30857"
      },
      "geometry": {
        "type": "Point",
        "coordinates": [
          -158.7439999661575,
          -0.03864033249984022
        ]
      }
    },
    {
      "type": "Feature",
      "properties": {
        "norad_id": 42950,
        "name": "INTELSAT 37E (IS-37E)",
        "group": "intelsat",
        "lat": -0.040717465054894375,
        "lon": -142.25644140355433,
        "alt_km": 35773.567432861775,
        "timestamp": "2025-12-03T10:52:57.117979+00:00",
        "meta_object_name": "INTELSAT 37E (IS-37E)",
        "meta_object_id": "2017-059A",
        "meta_epoch": "2025-12-03T00:45:38.739168",
        "meta_mean_motion": 1.0027087,
        "meta_eccentricity": 0.0003432,
        "meta_inclination": 0.016,
        "meta_ra_of_asc_node": 307.3244,
        "meta_arg_of_pericenter": 298.8379,
        "meta_mean_anomaly": 179.3848,
        "meta_ephemeris_type": 0,
        "meta_classification_type": "U",
        "meta_norad_cat_id": 42950,
        "meta_element_set_no": 999,
        "meta_rev_at_epoch": 3009,
        "meta_bstar": 0,
        "meta_mean_motion_dot": -1.21e-06,
        "meta_mean_motion_ddot": 0,
        "tle_line1": "1 42950U 17059A   25337.03169837 -.00000121  00000+0  00000+0 0  9992",
        "tle_line2": "2 42950   0.0160 307.3244 0003432 298.8379 179.3848  1.00270870 30097"
      },
      "geometry": {
        "type": "Point",
        "coordinates": [
          -142.25644140355433,
          -0.040717465054894375
        ]
      }
    },
    {
      "type": "Feature",
      "properties": {
        "norad_id": 43632,
        "name": "AZERSPACE 2 (IS-38)",
        "group": "intelsat",
        "lat": -0.02834885338644999,
        "lon": -79.12415846800859,
        "alt_km": 35779.715955490385,
        "timestamp": "2025-12-03T10:52:57.117991+00:00",
        "meta_object_name": "AZERSPACE 2 (IS-38)",
        "meta_object_id": "2018-074A",
        "meta_epoch": "2025-12-03T01:59:05.629056",
        "meta_mean_motion": 1.00271401,
        "meta_eccentricity": 0.000169,
        "meta_inclination": 0.0147,
        "meta_ra_of_asc_node": 335.5882,
        "meta_arg_of_pericenter": 279.2754,
        "meta_mean_anomaly": 252.1997,
        "meta_ephemeris_type": 0,
        "meta_classification_type": "U",
        "meta_norad_cat_id": 43632,
        "meta_element_set_no": 999,
        "meta_rev_at_epoch": 2648,
        "meta_bstar": 0,
        "meta_mean_motion_dot": 1.56e-06,
        "meta_mean_motion_ddot": 0,
        "tle_line1": "1 43632U 18074A   25337.08270404  .00000156  00000+0  00000+0 0  9993",
        "tle_line2": "2 43632   0.0147 335.5882 0001690 279.2754 252.1997  1.00271401 26489"
      },
      "geometry": {
        "type": "Point",
        "coordinates": [
          -79.12415846800859,
          -0.02834885338644999
        ]
      }
    },
    {
      "type": "Feature",
      "properties": {
        "norad_id": 43633,
        "name": "HORIZONS-3E",
        "group": "intelsat",
        "lat": 0.015104457818490959,
        "lon": 44.785679236176954,
        "alt_km": 35788.9092774876,
        "timestamp": "2025-12-03T10:52:57.118003+00:00",
        "meta_object_name": "HORIZONS-3E",
        "meta_object_id": "2018-074B",
        "meta_epoch": "2025-12-02T09:32:38.562720",
        "meta_mean_motion": 1.00268601,
        "meta_eccentricity": 0.00010808,
        "meta_inclination": 0.0303,
        "meta_ra_of_asc_node": 208.778,
        "meta_arg_of_pericenter": 80.6678,
        "meta_mean_anomaly": 94.2479,
        "meta_ephemeris_type": 0,
        "meta_classification_type": "U",
        "meta_norad_cat_id": 43633,
        "meta_element_set_no": 999,
        "meta_rev_at_epoch": 2636,
        "meta_bstar": 0,
        "meta_mean_motion_dot": -1e-07,
        "meta_mean_motion_ddot": 0,
        "tle_line1": "1 43633U 18074B   25336.39766855 -.00000010  00000+0  00000+0 0  9997",
        "tle_line2": "2 43633   0.0303 208.7780 0001080  80.6678  94.2479  1.00268601 26369"
      },
      "geometry": {
        "type": "Point",
        "coordinates": [
          44.785679236176954,
          0.015104457818490959
        ]
      }
    }
  ]
}